$$SOE
2460728.500000000, A.D. 2025-Feb-22 00:00:00.0000, 2.444248399749312E+08, -1.737740565503043E+08, -8.986452283967875E+06,
2460735.500000000, A.D. 2025-Mar-01 00:00:00.0000, 2.503504214249597E+08, -1.641775567620150E+08, -1.419612603249409E+07,
2460742.500000000, A.D. 2025-Mar-08 00:00:00.0000, 2.558246707466534E+08, -1.542851293715553E+08, -1.938020193372794E+07,
2460749.500000000, A.D. 2025-Mar-15 00:00:00.0000, 2.608361368881061E+08, -1.441136504342371E+08, -2.452921373545209E+07,
2460756.500000000, A.D. 2025-Mar-22 00:00:00.0000, 2.653740157114649E+08, -1.336805544483716E+08, -2.963368264666787E+07,
2460763.500000000, A.D. 2025-Mar-29 00:00:00.0000, 2.694281719242073E+08, -1.230038250083786E+08, -3.468412814250983E+07,
2460770.500000000, A.D. 2025-Apr-05 00:00:00.0000, 2.729891633158087E+08, -1.121019837329614E+08, -3.967107933533235E+07,
2460777.500000000, A.D. 2025-Apr-12 00:00:00.0000, 2.760482653605022E+08, -1.009940772514978E+08, -4.458508676282287E+07,
2460784.500000000, A.D. 2025-Apr-19 00:00:00.0000, 2.785974959743530E+08, -8.969966301346865E+07, -4.941673468302120E+07,
2460791.500000000, A.D. 2025-Apr-26 00:00:00.0000, 2.806296406621958E+08, -7.823879400261959E+07, -5.415665395114183E+07,
2460798.500000000, A.D. 2025-May-03 00:00:00.0000, 2.821382781208306E+08, -6.663200221125314E+07, -5.879553551839545E+07,
2460805.500000000, A.D. 2025-May-10 00:00:00.0000, 2.831178062685814E+08, -5.490028073754410E+07, -6.332414458382213E+07,
2460812.500000000, A.D. 2025-May-17 00:00:00.0000, 2.835634686674752E+08, -4.306506441736465E+07, -6.773333543260971E+07,
2460819.500000000, A.D. 2025-May-24 00:00:00.0000, 2.834713814249384E+08, -3.114820891650220E+07, -7.201406700424768E+07,
2460826.500000000, A.D. 2025-May-31 00:00:00.0000, 2.828385608836563E+08, -1.917196783999418E+07, -7.615741921875085E+07,
2460833.500000000, A.D. 2025-Jun-07 00:00:00.0000, 2.816629515806398E+08, -7.158966512048844E+06, -8.015460993606959E+07,
2460840.500000000, A.D. 2025-Jun-14 00:00:00.0000, 2.799434519949732E+08, 4.867827040177908E+06, -8.399701239979780E+07,
2460847.500000000, A.D. 2025-Jun-21 00:00:00.0000, 2.776799391593281E+08, 1.688513074660681E+07, -8.767617355181383E+07,
2460854.500000000, A.D. 2025-Jun-28 00:00:00.0000, 2.748732950916297E+08, 2.886937868449315E+07, -9.118383335585055E+07,
2460861.500000000, A.D. 2025-Jul-05 00:00:00.0000, 2.715254333480383E+08, 4.079675507465098E+07, -9.451194480501816E+07,
2460868.500000000, A.D. 2025-Jul-12 00:00:00.0000, 2.676393243113253E+08, 5.264323138308153E+07, -9.765269455493174E+07,
2460875.500000000, A.D. 2025-Jul-19 00:00:00.0000, 2.632190191876890E+08, 6.438460604062418E+07, -1.005985242196547E+08,
2460882.500000000, A.D. 2025-Jul-26 00:00:00.0000, 2.582696726807330E+08, 7.599654679740074E+07, -1.033421523087838E+08,
2460889.500000000, A.D. 2025-Aug-02 00:00:00.0000, 2.527975641449588E+08, 8.745463579975353E+07, -1.058765967458603E+08,
2460896.500000000, A.D. 2025-Aug-09 00:00:00.0000, 2.468101169664123E+08, 9.873441743772754E+07, -1.081951978983451E+08,
2460903.500000000, A.D. 2025-Aug-16 00:00:00.0000, 2.403159159677970E+08, 1.098114489502046E+08, -1.102916420603884E+08,
2460910.500000000, A.D. 2025-Aug-23 00:00:00.0000, 2.333247228474016E+08, 1.206613538236095E+08, -1.121599853443674E+08,
2460917.500000000, A.D. 2025-Aug-30 00:00:00.0000, 2.258474896821371E+08, 1.312598786732378E+08, -1.137946778681846E+08,
2460924.500000000, A.D. 2025-Sep-06 00:00:00.0000, 2.178963687519848E+08, 1.415829545518543E+08, -1.151905879129491E+08,
2460931.500000000, A.D. 2025-Sep-13 00:00:00.0000, 2.094847166890221E+08, 1.516067601325253E+08, -1.163430259800325E+08,
2460938.500000000, A.D. 2025-Sep-20 00:00:00.0000, 2.006270959044415E+08, 1.613077850062329E+08, -1.172477690535101E+08,
2460945.500000000, A.D. 2025-Sep-27 00:00:00.0000, 1.913392740167114E+08, 1.706628960473911E+08, -1.179010847534785E+08,
2460952.500000000, A.D. 2025-Oct-04 00:00:00.0000, 1.816382189291243E+08, 1.796494071995583E+08, -1.182997549806785E+08,
2460959.500000000, A.D. 2025-Oct-11 00:00:00.0000, 1.715420888611261E+08, 1.882451515135538E+08, -1.184410989180164E+08,
2460966.500000000, A.D. 2025-Oct-18 00:00:00.0000, 1.610702173094009E+08, 1.964285548954354E+08, -1.183229952502748E+08,
2460973.500000000, A.D. 2025-Oct-25 00:00:00.0000, 1.502430927884234E+08, 2.041787112633742E+08, -1.179439034165801E+08,
2460980.500000000, A.D. 2025-Nov-01 00:00:00.0000, 1.390823331235014E+08, 2.114754587731845E+08, -1.173028836917685E+08,
2460987.500000000, A.D. 2025-Nov-08 00:00:00.0000, 1.276106540936925E+08, 2.182994566821842E+08, -1.163996158889685E+08,
2460994.500000000, A.D. 2025-Nov-15 00:00:00.0000, 1.158518323703945E+08, 2.246322623524931E+08, -1.152344164833299E+08,
2461001.500000000, A.D. 2025-Nov-22 00:00:00.0000, 1.038306629942664E+08, 2.304564081354061E+08, -1.138082539564261E+08,
2461008.500000000, A.D. 2025-Nov-29 00:00:00.0000, 9.157291112958075E+07, 2.357554787544078E+08, -1.121227620362735E+08,
2461015.500000000, A.D. 2025-Dec-06 00:00:00.0000, 7.910525576159063E+07, 2.405141884874449E+08, -1.101802504062847E+08,
2461022.500000000, A.D. 2025-Dec-13 00:00:00.0000, 6.645522575207949E+07, 2.447184541950774E+08, -1.079837129720604E+08,
2461029.500000000, A.D. 2025-Dec-20 00:00:00.0000, 5.365113180132259E+07, 2.483554646281373E+08, -1.055368337305703E+08,
2461036.500000000, A.D. 2025-Dec-27 00:00:00.0000, 4.072199337420716E+07, 2.514137479829693E+08, -1.028439897451479E+08,
2461043.500000000, A.D. 2026-Jan-03 00:00:00.0000, 2.769745932132243E+07, 2.538832364517885E+08, -9.991025096631224E+07,
2461050.500000000, A.D. 2026-Jan-10 00:00:00.0000, 1.460772256637676E+07, 2.557553264563960E+08, -9.674137681542085E+07,
2461057.500000000, A.D. 2026-Jan-17 00:00:00.0000, 1.483429432032769E+06, 2.570229338498489E+08, -9.334380943971038E+07,
2461064.500000000, A.D. 2026-Jan-24 00:00:00.0000, -1.164441590148973E+07, 2.576805435020845E+08, -8.972466355151376E+07,
2461071.500000000, A.D. 2026-Jan-31 00:00:00.0000, -2.474455129121932E+07, 2.577242526824944E+08, -8.589171279102492E+07,
2461078.500000000, A.D. 2026-Feb-07 00:00:00.0000, -3.778556025823523E+07, 2.571518076394473E+08, -8.185337259079792E+07,
2461085.500000000, A.D. 2026-Feb-14 00:00:00.0000, -5.073597846993648E+07, 2.559626328653926E+08, -7.761867956812762E+07,
2461092.500000000, A.D. 2026-Feb-21 00:00:00.0000, -6.356440201125813E+07, 2.541578531858235E+08, -7.319726747277209E+07,
2461099.500000000, A.D. 2026-Feb-28 00:00:00.0000, -7.623959780112584E+07, 2.517403094585942E+08, -6.859933957818365E+07,
2461106.500000000, A.D. 2026-Mar-07 00:00:00.0000, -8.873061742937027E+07, 2.487145656385595E+08, -6.383563760522158E+07,
2461113.500000000, A.D. 2026-Mar-14 00:00:00.0000, -1.010069108259289E+08, 2.450869046359222E+08, -5.891740776510414E+07,
2461120.500000000, A.D. 2026-Mar-21 00:00:00.0000, -1.130384371706942E+08, 2.408653157290806E+08, -5.385636404244462E+07,
2461127.500000000, A.D. 2026-Mar-28 00:00:00.0000, -1.247957742180016E+08, 2.360594745330442E+08, -4.866464869004378E+07,
2461134.500000000, A.D. 2026-Apr-04 00:00:00.0000, -1.362502257976626E+08, 2.306807146065653E+08, -4.335479021978679E+07,
2461141.500000000, A.D. 2026-Apr-11 00:00:00.0000, -1.473739263993359E+08, 2.247419904758693E+08, -3.793965923376604E+07,
2461148.500000000, A.D. 2026-Apr-18 00:00:00.0000, -1.581399418919065E+08, 2.182578323019745E+08, -3.243242242897471E+07,
2461155.500000000, A.D. 2026-Apr-25 00:00:00.0000, -1.685223655835426E+08, 2.112442925323132E+08, -2.684649511908086E+07,
2461162.500000000, A.D. 2026-May-02 00:00:00.0000, -1.784964088950073E+08, 2.037188849216300E+08, -2.119549263522849E+07,
2461169.500000000, A.D. 2026-May-09 00:00:00.0000, -1.880384858837909E+08, 1.957005163545615E+08, -1.549318098860698E+07,
2461176.500000000, A.D. 2026-May-16 00:00:00.0000, -1.971262906626332E+08, 1.872094121804228E+08, -9.753427184896164E+06,
2461183.500000000, A.D. 2026-May-23 00:00:00.0000, -2.057388671418547E+08, 1.782670367061549E+08, -3.990149472909197E+06,
2461190.500000000, A.D. 2026-May-30 00:00:00.0000, -2.138566727348399E+08, 1.688960098191501E+08, 1.782732332382463E+06,
2461197.500000000, A.D. 2026-Jun-06 00:00:00.0000, -2.214616360122689E+08, 1.591200171497830E+08, 7.551345857012905E+06,
2461204.500000000, A.D. 2026-Jun-13 00:00:00.0000, -2.285372044119565E+08, 1.489637146893108E+08, 1.330191383606330E+07,
2461211.500000000, A.D. 2026-Jun-20 00:00:00.0000, -2.350683823964081E+08, 1.384526315425716E+08, 1.902080039701279E+07,
2461218.500000000, A.D. 2026-Jun-27 00:00:00.0000, -2.410417617439583E+08, 1.276130712804632E+08, 2.469455578725388E+07,
2461225.500000000, A.D. 2026-Jul-04 00:00:00.0000, -2.464455440072518E+08, 1.164720119167171E+08, 3.030995922209713E+07,
2461232.500000000, A.D. 2026-Jul-11 00:00:00.0000, -2.512695549838951E+08, 1.050570051310227E+08, 3.585405959012739E+07,
2461239.500000000, A.D. 2026-Jul-18 00:00:00.0000, -2.555052512892679E+08, 9.339607548058894E+07, 4.131421380829622E+07,
2461246.500000000, A.D. 2026-Jul-25 00:00:00.0000, -2.591457192681165E+08, 8.151762028583273E+07, 4.667812265376770E+07,
2461253.500000000, A.D. 2026-Aug-01 00:00:00.0000, -2.621856665251521E+08, 6.945031078686751E+07, 5.193386392574914E+07,
2461260.500000000, A.D. 2026-Aug-08 00:00:00.0000, -2.646214062446115E+08, 5.722299513463272E+07, 5.706992280952577E+07,
2461267.500000000, A.D. 2026-Aug-15 00:00:00.0000, -2.664508343147396E+08, 4.486460421526060E+07, 6.207521936890681E+07,
2461274.500000000, A.D. 2026-Aug-22 00:00:00.0000, -2.676734004867345E+08, 3.240406201966141E+07, 6.693913329529820E+07,
2461281.500000000, A.D. 2026-Aug-29 00:00:00.0000, -2.682900763607591E+08, 1.987019961509434E+07, 7.165152600123613E+07,
2461288.500000000, A.D. 2026-Sep-05 00:00:00.0000, -2.683033185972663E+08, 7.291670224388853E+06, 7.620275965120316E+07,
2461295.500000000, A.D. 2026-Sep-12 00:00:00.0000, -2.677170254291656E+08, -5.303131770634312E+06, 8.058371315521373E+07,
$$EOE